NORAD_CAT_ID,OBJECT_NAME,OBJECT_TYPE,EPOCH,MEAN_MOTION,ECCENTRICITY,INCLINATION,RA_OF_ASC_NODE,ARG_OF_PERICENTER,MEAN_ANOMALY,BSTAR,MEAN_MOTION_DOT,MEAN_MOTION_DDOT,TLE_LINE0,TLE_LINE1,TLE_LINE2,SEMIMAJOR_AXIS,PERIOD,APOGEE,PERIGEE,DECAYED
54182.0,STARLINK-5231,PAYLOAD,2024-07-12 15:34:20,15.08839172,0.0001369,53.2163,169.8895,85.3991,274.7157,4.5275e-05,4.33e-06,0.0,0 STARLINK-5231,1 54182U 22141AB  24194.64884645  .00000433  00000-0  45275-4 0  9992,2 54182  53.2163 169.8895 0001369  85.3991 274.7157 15.08839172 95171,6917.883,95.438,540.695,538.801,0.0
54182.0,STARLINK-5231,PAYLOAD,2024-07-13 07:28:11,15.08840974,0.0001468,53.2167,166.913,85.574,274.542,6.986e-05,8.24e-06,0.0,0 STARLINK-5231,1 54182U 22141AB  24195.31124603  .00000824  00000-0  69860-4 0  9998,2 54182  53.2167 166.9130 0001468  85.5740 274.5420 15.08840974 95048,6917.877,95.437,540.758,538.727,0.0
54182.0,STARLINK-5231,PAYLOAD,2024-07-13 21:46:40,15.08843292,0.0001558,53.2168,164.2408,86.0319,274.0851,8.408e-06,-1.54e-06,0.0,0 STARLINK-5231,1 54182U 22141AB  24195.90740800 -.00000154  00000-0  84080-5 0  9995,2 54182  53.2168 164.2408 0001558  86.0319 274.0851 15.08843292 95135,6917.87,95.437,540.813,538.658,0.0
54182.0,STARLINK-5231,PAYLOAD,2024-07-14 04:08:12,15.08847334,0.0001269,53.2151,163.0516,97.5598,262.5539,2.1987e-05,6.2e-07,0.0,0 STARLINK-5231,1 54182U 22141AB  24196.17236324  .00000062  00000-0  21987-4 0  9999,2 54182  53.2151 163.0516 0001269  97.5598 262.5539 15.08847334 95405,6917.858,95.437,540.601,538.845,0.0
54182.0,STARLINK-5231,PAYLOAD,2024-07-14 15:15:54,15.08841405,0.0001269,53.215,160.9681,92.2331,267.8806,3.3859e-05,2.51e-06,0.0,0 STARLINK-5231,1 54182U 22141AB  24196.63604561  .00000251  00000-0  33859-4 0  9993,2 54182  53.2150 160.9681 0001269  92.2331 267.8806 15.08841405 95475,6917.876,95.437,540.619,538.863,0.0
54182.0,STARLINK-5231,PAYLOAD,2024-07-15 07:09:45,15.08843904,0.0001508,53.2167,157.9938,96.6722,263.4442,4.9254e-05,4.96e-06,0.0,0 STARLINK-5231,1 54182U 22141AB  24197.29844460  .00000496  00000-0  49254-4 0  9997,2 54182  53.2167 157.9938 0001508  96.6722 263.4442 15.08843904 95342,6917.868,95.437,540.777,538.69,0.0
54182.0,STARLINK-5231,PAYLOAD,2024-07-16 03:49:46,15.08835801,0.000127,53.2175,154.1255,109.8477,250.2652,0.00012538,1.708e-05,0.0,0 STARLINK-5231,1 54182U 22141AB  24198.15956638  .00001708  00000-0  12538-3 0  9995,2 54182  53.2175 154.1255 0001270 109.8477 250.2652 15.08835801 95706,6917.893,95.438,540.637,538.88,0.0
54182.0,STARLINK-5231,PAYLOAD,2024-07-16 07:00:32,15.08845707,0.00013,53.2155,153.5332,98.0126,262.1014,4.5972e-05,4.44e-06,0.0,0 STARLINK-5231,1 54182U 22141AB  24198.29204250  .00000444  00000-0  45972-4 0  9991,2 54182  53.2155 153.5332 0001300  98.0126 262.1014 15.08845707 95729,6917.863,95.437,540.627,538.829,0.0
54182.0,STARLINK-5231,PAYLOAD,2024-07-17 03:40:34,15.08838037,0.0001373,53.2169,149.6673,85.3405,274.7744,1.4778e-05,-5.3e-07,0.0,0 STARLINK-5231,1 54182U 22141AB  24199.15317182 -.00000053  00000-0  14778-4 0  9993,2 54182  53.2169 149.6673 0001373  85.3405 274.7744 15.08838037 95858,6917.886,95.438,540.701,538.802,0.0
54182.0,STARLINK-5231,PAYLOAD,2024-07-17 13:12:53,15.08837228,0.0001349,53.2168,147.884,83.8159,276.2987,-1.4875e-06,-3.12e-06,0.0,0 STARLINK-5231,1 54182U 22141AB  24199.55061458 -.00000312  00000-0 -14875-5 0  9997,2 54182  53.2168 147.8840 0001349  83.8159 276.2987 15.08837228 95683,6917.889,95.438,540.687,538.821,0.0
54182.0,STARLINK-5231,PAYLOAD,2024-07-18 03:31:21,15.0884315,0.0001375,53.2169,145.208,96.6179,263.497,2.8774e-05,1.7e-06,0.0,0 STARLINK-5231,1 54182U 22141AB  24200.14677133  .00000170  00000-0  28774-4 0  9990,2 54182  53.2169 145.2080 0001375  96.6179 263.4970 15.08843150 95776,6917.871,95.437,540.687,538.785,0.0
54182.0,STARLINK-5231,PAYLOAD,2024-07-19 01:46:45,15.088381,0.0001443,53.2173,141.0465,99.1204,260.9952,2.3363e-05,8.4e-07,0.0,0 STARLINK-5231,1 54182U 22141AB  24201.07413980  .00000084  00000-0  23363-4 0  9994,2 54182  53.2173 141.0465 0001443  99.1204 260.9952 15.08838100 96148,6917.886,95.438,540.749,538.753,0.0
54182.0,STARLINK-5231,PAYLOAD,2024-07-20 04:48:18,15.0884818,0.0001417,53.2172,135.99,92.115,268.0004,0.000112,1.495e-05,0.0,0 STARLINK-5231,1 54182U 22141AB  24202.20021208  .00001495  00000-0  11200-3 0  9991,2 54182  53.2172 135.9900 0001417  92.1150 268.0004 15.08848180 96312,6917.855,95.437,540.701,538.74,0.0
54182.0,STARLINK-5231,PAYLOAD,2024-07-20 12:45:14,15.08840886,0.0001247,53.2163,134.5014,96.8197,263.2937,3.9892e-05,3.47e-06,0.0,0 STARLINK-5231,1 54182U 22141AB  24202.53141754  .00000347  00000-0  39892-4 0  9999,2 54182  53.2163 134.5014 0001247  96.8197 263.2937 15.08840886 96368,6917.878,95.437,540.605,538.88,0.0
54182.0,STARLINK-5231,PAYLOAD,2024-07-21 04:39:05,15.0885327,0.0001477,53.2176,131.5302,89.0028,271.1134,0.00013633,1.883e-05,0.0,0 STARLINK-5231,1 54182U 22141AB  24203.19380888  .00001883  00000-0  13633-3 0  9995,2 54182  53.2176 131.5302 0001477  89.0028 271.1134 15.08853270 96460,6917.84,95.437,540.727,538.683,0.0
54182.0,STARLINK-5231,PAYLOAD,2024-07-21 23:43:43,15.08837685,0.0002051,53.2189,127.9564,77.2435,282.8786,6.0702e-05,6.78e-06,0.0,0 STARLINK-5231,1 54182U 22141AB  24203.98870188  .00000678  00000-0  60702-4 0  9990,2 54182  53.2189 127.9564 0002051  77.2435 282.8786 15.08837685 96580,6917.887,95.438,541.171,538.334,0.0
54182.0,STARLINK-5231,PAYLOAD,2024-07-22 21:59:07,15.0884384,0.0001212,53.2156,123.7996,92.3406,267.7725,9.0097e-05,1.146e-05,0.0,0 STARLINK-5231,1 54182U 22141AB  24204.91605421  .00001146  00000-0  90097-4 0  9991,2 54182  53.2156 123.7996 0001212  92.3406 267.7725 15.08843840 96496,6917.869,95.437,540.572,538.895,0.0
54182.0,STARLINK-5231,PAYLOAD,2024-07-23 04:20:38,15.08854436,0.0001341,53.216,122.6071,93.5378,266.5768,0.0001578,2.225e-05,0.0,0 STARLINK-5231,1 54182U 22141AB  24205.18100483  .00002225  00000-0  15780-3 0  9993,2 54182  53.2160 122.6071 0001341  93.5378 266.5768 15.08854436 96764,6917.836,95.437,540.629,538.774,0.0
54182.0,STARLINK-5231,PAYLOAD,2024-07-23 18:39:09,15.08827013,9.18e-05,53.2176,119.9358,62.9339,297.1747,-7.4301e-05,-1.47e-05,0.0,0 STARLINK-5231,1 54182U 22141AB  24205.77719029 -.00001470  00000-0 -74301-4 0  9998,2 54182  53.2176 119.9358 0000918  62.9339 297.1747 15.08827013 96852,6917.92,95.438,540.42,539.15,0.0
54182.0,STARLINK-5231,PAYLOAD,2024-07-24 01:00:41,15.08831581,0.000153,53.2168,118.7446,100.9405,259.176,-2.7846e-05,-7.31e-06,0.0,0 STARLINK-5231,1 54182U 22141AB  24206.04214718 -.00000731  00000-0 -27846-4 0  9995,2 54182  53.2168 118.7446 0001530 100.9405 259.1760 15.08831581 96898,6917.906,95.438,540.83,538.713,0.0
54182.0,STARLINK-5231,PAYLOAD,2024-07-25 00:51:27,15.08849088,0.0001264,53.2159,114.2797,101.7363,258.3771,6.6625e-06,-1.82e-06,0.0,0 STARLINK-5231,1 54182U 22141AB  24207.03573526 -.00000182  00000-0  66625-5 0  9998,2 54182  53.2159 114.2797 0001264 101.7363 258.3771 15.08849088 97046,6917.853,95.437,540.592,538.843,0.0
54182.0,STARLINK-5231,PAYLOAD,2024-07-25 18:20:43,15.08838877,0.0001073,53.217,111.0118,86.9804,273.1311,-3.4392e-05,-8.35e-06,0.0,0 STARLINK-5231,1 54182U 22141AB  24207.76438660 -.00000835  00000-0 -34392-4 0  9998,2 54182  53.2170 111.0118 0001073  86.9804 273.1311 15.08838877 97154,6917.884,95.438,540.491,539.007,0.0
54182.0,STARLINK-5231,PAYLOAD,2024-07-26 00:42:15,15.0882058,0.0001309,53.217,109.8222,95.4985,264.6157,0.00018738,2.694e-05,0.0,0 STARLINK-5231,1 54182U 22141AB  24208.02935132  .00002694  00000-0  18738-3 0  9992,2 54182  53.2170 109.8222 0001309  95.4985 264.6157 15.08820580 97191,6917.94,95.439,540.71,538.899,0.0
54182.0,STARLINK-5231,PAYLOAD,2024-07-26 10:14:34,15.08837182,0.0001422,53.2179,108.0424,98.0763,262.039,5.1827e-05,5.37e-06,0.0,0 STARLINK-5231,1 54182U 22141AB  24208.42678680  .00000537  00000-0  51827-4 0  9999,2 54182  53.2179 108.0424 0001422  98.0763 262.0390 15.08837182 97258,6917.889,95.438,540.738,538.77,0.0
54182.0,STARLINK-5231,PAYLOAD,2024-07-26 22:57:38,15.08855676,0.0001333,53.2169,105.6622,98.7136,261.4007,7.9084e-05,9.71e-06,0.0,0 STARLINK-5231,1 54182U 22141AB  24208.95669333  .00000971  00000-0  79084-4 0  9999,2 54182  53.2169 105.6622 0001333  98.7136 261.4007 15.08855676 97337,6917.832,95.437,540.62,538.775,0.0
54182.0,STARLINK-5231,PAYLOAD,2024-07-27 10:05:20,15.08845288,0.0001203,53.2161,103.579,99.7606,260.3522,-2.0253e-05,-6.1e-06,0.0,0 STARLINK-5231,1 54182U 22141AB  24209.42037995 -.00000610  00000-0 -20253-4 0  9991,2 54182  53.2161 103.5790 0001203  99.7606 260.3522 15.08845288 97407,6917.864,95.437,540.561,538.897,0.0
54182.0,STARLINK-5231,PAYLOAD,2024-07-27 22:48:27,15.08824203,0.0001736,53.2178,101.201,83.0018,277.1172,-4.2804e-05,-9.69e-06,0.0,0 STARLINK-5231,1 54182U 22141AB  24209.95032030 -.00000969  00000-0 -42804-4 0  9997,2 54182  53.2178 101.2010 0001736  83.0018 277.1172 15.08824203 97253,6917.929,95.439,540.995,538.593,0.0
54182.0,STARLINK-5231,PAYLOAD,2024-07-28 09:56:08,15.08835542,0.0001566,53.2177,99.1198,86.6617,273.4554,2.0479e-05,3.8e-07,0.0,0 STARLINK-5231,1 54182U 22141AB  24210.41399284  .00000038  00000-0  20479-4 0  9996,2 54182  53.2177  99.1198 0001566  86.6617 273.4554 15.08835542 97553,6917.894,95.438,540.842,538.676,0.0
54182.0,STARLINK-5231,PAYLOAD,2024-07-28 21:03:50,15.08844853,0.0001577,53.2173,97.0381,87.5008,272.6165,-4.9438e-06,-3.67e-06,0.0,0 STARLINK-5231,1 54182U 22141AB  24210.87766786 -.00000367  00000-0 -49438-5 0  9995,2 54182  53.2173  97.0381 0001577  87.5008 272.6165 15.08844853 97628,6917.866,95.437,540.822,538.64,0.0
54182.0,STARLINK-5231,PAYLOAD,2024-07-28 22:39:13,15.08843132,0.0001031,53.2149,96.7394,86.3758,273.7352,-1.4903e-05,-5.25e-06,0.0,0 STARLINK-5231,1 54182U 22141AB  24210.94390741 -.00000525  00000-0 -14903-4 0  9991,2 54182  53.2149  96.7394 0001031  86.3758 273.7352 15.08843132 97400,6917.871,95.437,540.449,539.023,0.0
